{
  "norad_id": 47753,
  "name": "STARLINK-2170",
  "history": [
    {
      "epoch": "2026-05-03T17:52:42.213792Z",
      "apogee_km": 471.6248339001786,
      "perigee_km": 469.87425849896954,
      "latitude_deg": 1.615677783982574e-05,
      "longitude_deg": 178.12370488028353,
      "height_km": 471.64511580806044,
      "semi_major_axis_km": 6848.886546199574,
      "eccentricity": 0.0001278,
      "inclination_deg": 53.1585,
      "raan_deg": 307.9438,
      "arg_perigee_deg": 89.8092,
      "mean_anomaly_deg": 270.3056,
      "mean_motion_rev_day": 15.31696796
    }
  ]
}